*******************************************************************************
Ephemeris / WWW_USER Mon Mar 24 08:17:25 2025 Pasadena, USA      / Horizons    
*******************************************************************************
Target body name: (2018 UG3)                      {source: JPL#15}
Center body name: Earth (399)                     {source: DE441}
Center-site name: Mauna Kea
*******************************************************************************
Start time      : A.D. 2018-Dec-06 03:52:00.0000 UT      
Stop  time      : A.D. 2018-Dec-06 16:33:00.0000 UT      
Step-size       : 1 minutes
*******************************************************************************
Target pole/equ : undefined
Target radii    : undefined                                                    
Center geodetic : 204.5278, 19.8260847, 4.21024   {E-lon(deg),Lat(deg),Alt(km)}
Center cylindric: 204.5278, 6006.35451, 2151.0229 {E-lon(deg),Dxy(km),Dz(km)}
Center pole/equ : ITRF93                          {East-longitude positive}
Center radii    : 6378.137, 6378.137, 6356.752 km {Equator_a, b, pole_c}       
Target primary  : Sun
Vis. interferer : MOON (R_eq= 1737.400) km        {source: DE441}
Rel. light bend : Sun                             {source: DE441}
Rel. lght bnd GM: 1.3271E+11 km^3/s^2                                          
Small-body perts: Yes                             {source: SB441-N16}
Atmos refraction: NO (AIRLESS)
RA format       : HMS
Time format     : CAL 
Calendar mode   : Mixed Julian/Gregorian
RTS-only print  : NO       
EOP file        : eop.250321.p250617                                           
EOP coverage    : DATA-BASED 1962-JAN-20 TO 2025-MAR-21. PREDICTS-> 2025-JUN-16
Units conversion: 1 au= 149597870.700 km, c= 299792.458 km/s, 1 day= 86400.0 s 
Table cut-offs 1: Elevation (-90.0deg=NO ),Airmass (>38.000=NO), Daylight (YES)
Table cut-offs 2: Solar elongation (  0.0,180.0=NO ),Local Hour Angle( 0.0=NO )
Table cut-offs 3: RA/DEC angular rate (     0.0=NO )                           
*******************************************************************************
Initial IAU76/J2000 heliocentric ecliptic osculating elements (au, days, deg.):
  EPOCH=  2458429.5 ! 2018-Nov-07.00 (TDB)         Residual RMS= .46194        
   EC= .4227384440318329   QR= .9585039390071354   TP= 2458393.2526467689      
   OM= 47.27406359171053   W=  314.2704472892426   IN= 6.159551265235018       
  Equivalent ICRF heliocentric cartesian coordinates (au, au/d):
   X= 7.430529944075828E-01  Y= 6.714692173902916E-01  Z= 2.851295671149762E-01
  VX=-1.040372162305418E-02 VY= 1.447630012002514E-02 VZ= 8.505235531163944E-03
Asteroid physical parameters (km, seconds, rotational period in hours):        
   GM= n.a.                RAD= n.a.               ROTPER= n.a.                
   H= 24.5                 G= .150                 B-V= n.a.                   
                           ALBEDO= n.a.            STYP= n.a.                  
*******************************************************************************
 Date__(UT)__HR:MN     R.A._________(ICRF)_________DEC
******************************************************
$$SOE
 2018-Dec-06 14:07     03 43 29.825232 +34 17 55.49517
 2018-Dec-06 14:08     03 43 29.844766 +34 17 55.61927
 2018-Dec-06 14:09     03 43 29.864356 +34 17 55.74326
 2018-Dec-06 14:10     03 43 29.884003 +34 17 55.86713
 2018-Dec-06 14:11     03 43 29.903707 +34 17 55.99089
 2018-Dec-06 14:12     03 43 29.923469 +34 17 56.11453
 2018-Dec-06 14:13     03 43 29.943287 +34 17 56.23807
 2018-Dec-06 14:14     03 43 29.963163 +34 17 56.36149
 2018-Dec-06 14:15     03 43 29.983097 +34 17 56.48482
 2018-Dec-06 14:16     03 43 30.003087 +34 17 56.60803
 2018-Dec-06 14:17     03 43 30.023135 +34 17 56.73115
 2018-Dec-06 14:18     03 43 30.043241 +34 17 56.85416
 2018-Dec-06 14:19     03 43 30.063404 +34 17 56.97707
 2018-Dec-06 14:20     03 43 30.083625 +34 17 57.09989
 2018-Dec-06 14:21     03 43 30.103904 +34 17 57.22261
 2018-Dec-06 14:22     03 43 30.124240 +34 17 57.34523
 2018-Dec-06 14:23     03 43 30.144633 +34 17 57.46777
 2018-Dec-06 14:24     03 43 30.165085 +34 17 57.59021
 2018-Dec-06 14:25     03 43 30.185595 +34 17 57.71257
 2018-Dec-06 14:26     03 43 30.206162 +34 17 57.83483
 2018-Dec-06 14:27     03 43 30.226787 +34 17 57.95702
 2018-Dec-06 14:28     03 43 30.247470 +34 17 58.07912
 2018-Dec-06 14:29     03 43 30.268211 +34 17 58.20113
 2018-Dec-06 14:30     03 43 30.289010 +34 17 58.32307
 2018-Dec-06 14:31     03 43 30.309867 +34 17 58.44493
 2018-Dec-06 14:32     03 43 30.330783 +34 17 58.56671
 2018-Dec-06 14:33     03 43 30.351756 +34 17 58.68842
 2018-Dec-06 14:34     03 43 30.372787 +34 17 58.81005
 2018-Dec-06 14:35     03 43 30.393877 +34 17 58.93162
 2018-Dec-06 14:36     03 43 30.415025 +34 17 59.05311
 2018-Dec-06 14:37     03 43 30.436231 +34 17 59.17454
 2018-Dec-06 14:38     03 43 30.457495 +34 17 59.29590
 2018-Dec-06 14:39     03 43 30.478818 +34 17 59.41720
 2018-Dec-06 14:40     03 43 30.500199 +34 17 59.53843
 2018-Dec-06 14:41     03 43 30.521638 +34 17 59.65961
 2018-Dec-06 14:42     03 43 30.543136 +34 17 59.78072
 2018-Dec-06 14:43     03 43 30.564692 +34 17 59.90178
 2018-Dec-06 14:44     03 43 30.586306 +34 18 00.02278
 2018-Dec-06 14:45     03 43 30.607979 +34 18 00.14373
 2018-Dec-06 14:46     03 43 30.629710 +34 18 00.26463
 2018-Dec-06 14:47     03 43 30.651500 +34 18 00.38548
 2018-Dec-06 14:48     03 43 30.673348 +34 18 00.50628
 2018-Dec-06 14:49     03 43 30.695255 +34 18 00.62704
 2018-Dec-06 14:50     03 43 30.717220 +34 18 00.74775
 2018-Dec-06 14:51     03 43 30.739244 +34 18 00.86841
 2018-Dec-06 14:52     03 43 30.761326 +34 18 00.98904
 2018-Dec-06 14:53     03 43 30.783467 +34 18 01.10963
 2018-Dec-06 14:54     03 43 30.805667 +34 18 01.23018
 2018-Dec-06 14:55     03 43 30.827925 +34 18 01.35069
 2018-Dec-06 14:56     03 43 30.850241 +34 18 01.47117
 2018-Dec-06 14:57     03 43 30.872616 +34 18 01.59162
 2018-Dec-06 14:58     03 43 30.895050 +34 18 01.71204
 2018-Dec-06 14:59     03 43 30.917542 +34 18 01.83243
 2018-Dec-06 15:00     03 43 30.940093 +34 18 01.95280
 2018-Dec-06 15:01     03 43 30.962703 +34 18 02.07313
 2018-Dec-06 15:02     03 43 30.985371 +34 18 02.19345
 2018-Dec-06 15:03     03 43 31.008098 +34 18 02.31374
 2018-Dec-06 15:04     03 43 31.030883 +34 18 02.43402
 2018-Dec-06 15:05     03 43 31.053727 +34 18 02.55428
 2018-Dec-06 15:06     03 43 31.076629 +34 18 02.67452
 2018-Dec-06 15:07     03 43 31.099590 +34 18 02.79474
 2018-Dec-06 15:08     03 43 31.122610 +34 18 02.91496
 2018-Dec-06 15:09     03 43 31.145688 +34 18 03.03516
 2018-Dec-06 15:10     03 43 31.168825 +34 18 03.15536
 2018-Dec-06 15:11     03 43 31.192020 +34 18 03.27554
 2018-Dec-06 15:12     03 43 31.215274 +34 18 03.39573
 2018-Dec-06 15:13     03 43 31.238587 +34 18 03.51591
 2018-Dec-06 15:14     03 43 31.261957 +34 18 03.63608
 2018-Dec-06 15:15     03 43 31.285387 +34 18 03.75626
 2018-Dec-06 15:16     03 43 31.308875 +34 18 03.87644
 2018-Dec-06 15:17     03 43 31.332421 +34 18 03.99662
 2018-Dec-06 15:18     03 43 31.356026 +34 18 04.11681
 2018-Dec-06 15:19     03 43 31.379690 +34 18 04.23701
 2018-Dec-06 15:20     03 43 31.403411 +34 18 04.35721
 2018-Dec-06 15:21     03 43 31.427192 +34 18 04.47743
 2018-Dec-06 15:22     03 43 31.451030 +34 18 04.59766
 2018-Dec-06 15:23     03 43 31.474927 +34 18 04.71790
 2018-Dec-06 15:24     03 43 31.498882 +34 18 04.83816
 2018-Dec-06 15:25     03 43 31.522896 +34 18 04.95843
 2018-Dec-06 15:26 A   03 43 31.546968 +34 18 05.07873
 2018-Dec-06 15:27 A   03 43 31.571098 +34 18 05.19905
 2018-Dec-06 15:28 A   03 43 31.595286 +34 18 05.31939
 2018-Dec-06 15:29 A   03 43 31.619533 +34 18 05.43975
 2018-Dec-06 15:30 A   03 43 31.643838 +34 18 05.56014
 2018-Dec-06 15:31 A   03 43 31.668201 +34 18 05.68056
 2018-Dec-06 15:32 A   03 43 31.692622 +34 18 05.80101
 2018-Dec-06 15:33 A   03 43 31.717101 +34 18 05.92150
 2018-Dec-06 15:34 A   03 43 31.741638 +34 18 06.04201
 2018-Dec-06 15:35 A   03 43 31.766233 +34 18 06.16256
 2018-Dec-06 15:36 A   03 43 31.790886 +34 18 06.28315
 2018-Dec-06 15:37 A   03 43 31.815597 +34 18 06.40378
 2018-Dec-06 15:38 A   03 43 31.840366 +34 18 06.52445
 2018-Dec-06 15:39 A   03 43 31.865193 +34 18 06.64516
 2018-Dec-06 15:40 A   03 43 31.890078 +34 18 06.76592
 2018-Dec-06 15:41 A   03 43 31.915020 +34 18 06.88672
 2018-Dec-06 15:42 A   03 43 31.940021 +34 18 07.00757
 2018-Dec-06 15:43 A   03 43 31.965078 +34 18 07.12847
 2018-Dec-06 15:44 A   03 43 31.990194 +34 18 07.24942
 2018-Dec-06 15:45 A   03 43 32.015367 +34 18 07.37042
 2018-Dec-06 15:46 A   03 43 32.040598 +34 18 07.49148
 2018-Dec-06 15:47 A   03 43 32.065886 +34 18 07.61259
 2018-Dec-06 15:48 A   03 43 32.091232 +34 18 07.73377
 2018-Dec-06 15:49 A   03 43 32.116635 +34 18 07.85500
 2018-Dec-06 15:50 A   03 43 32.142095 +34 18 07.97630
 2018-Dec-06 15:51 A   03 43 32.167613 +34 18 08.09765
 2018-Dec-06 15:52 A   03 43 32.193188 +34 18 08.21908
 2018-Dec-06 15:53 N   03 43 32.218820 +34 18 08.34057
 2018-Dec-06 15:54 N   03 43 32.244509 +34 18 08.46213
 2018-Dec-06 15:55 N   03 43 32.270255 +34 18 08.58376
 2018-Dec-06 15:56 N   03 43 32.296059 +34 18 08.70546
 2018-Dec-06 15:57 N   03 43 32.321919 +34 18 08.82724
 2018-Dec-06 15:58 N   03 43 32.347836 +34 18 08.94909
 2018-Dec-06 15:59 N   03 43 32.373810 +34 18 09.07102
 2018-Dec-06 16:00 N   03 43 32.399841 +34 18 09.19303
 2018-Dec-06 16:01 N   03 43 32.425928 +34 18 09.31512
 2018-Dec-06 16:02 Nm  03 43 32.452072 +34 18 09.43729
 2018-Dec-06 16:03 Nm  03 43 32.478273 +34 18 09.55955
 2018-Dec-06 16:04 Nm  03 43 32.504530 +34 18 09.68189
 2018-Dec-06 16:05 Nm  03 43 32.530844 +34 18 09.80432
 2018-Dec-06 16:06 Nm  03 43 32.557214 +34 18 09.92684
 2018-Dec-06 16:07 Nm  03 43 32.583640 +34 18 10.04945
 2018-Dec-06 16:08 Nm  03 43 32.610123 +34 18 10.17215
 2018-Dec-06 16:09 Nm  03 43 32.636662 +34 18 10.29495
